{
  "links" : {
    "next" : "https://api.nasa.gov/neo/rest/v1/feed?start_date=1995-05-09&end_date=1995-05-09&detailed=true&api_key=t0TVs3DtDT2H8Oy2Zy8m2eVrNsAVKAexjcZXUckd",
    "prev" : "https://api.nasa.gov/neo/rest/v1/feed?start_date=1995-05-07&end_date=1995-05-07&detailed=true&api_key=t0TVs3DtDT2H8Oy2Zy8m2eVrNsAVKAexjcZXUckd",
    "self" : "https://api.nasa.gov/neo/rest/v1/feed?start_date=1995-05-08&end_date=1995-05-08&detailed=true&api_key=t0TVs3DtDT2H8Oy2Zy8m2eVrNsAVKAexjcZXUckd"
  },
  "element_count" : 3,
  "near_earth_objects" : {
    "1995-05-08" : [ {
      "links" : {
        "self" : "https://api.nasa.gov/neo/rest/v1/neo/2356991?api_key=t0TVs3DtDT2H8Oy2Zy8m2eVrNsAVKAexjcZXUckd"
      },
      "neo_reference_id" : "2356991",
      "name" : "356991 (1998 QA1)",
      "nasa_jpl_url" : "http://ssd.jpl.nasa.gov/sbdb.cgi?sstr=2356991",
      "absolute_magnitude_h" : 18.9,
      "estimated_diameter" : {
        "kilometers" : {
          "estimated_diameter_min" : 0.4411182,
          "estimated_diameter_max" : 0.9863702813
        },
        "meters" : {
          "estimated_diameter_min" : 441.1181999969,
          "estimated_diameter_max" : 986.3702813054
        },
        "miles" : {
          "estimated_diameter_min" : 0.2740980571,
          "estimated_diameter_max" : 0.6129018881
        },
        "feet" : {
          "estimated_diameter_min" : 1447.2382352778,
          "estimated_diameter_max" : 3236.1230737181
        }
      },
      "is_potentially_hazardous_asteroid" : true,
      "close_approach_data" : [ {
        "close_approach_date" : "1995-05-08",
        "epoch_date_close_approach" : 799916400000,
        "relative_velocity" : {
          "kilometers_per_second" : "14.3425306846",
          "kilometers_per_hour" : "51633.110464672",
          "miles_per_hour" : "32082.8068884513"
        },
        "miss_distance" : {
          "astronomical" : "0.2269234082",
          "lunar" : "88.2732086182",
          "kilometers" : "33947260",
          "miles" : "21093848"
        },
        "orbiting_body" : "Earth"
      } ],
      "orbital_data" : {
        "orbit_id" : "52",
        "orbit_determination_date" : "2017-04-06 09:22:57",
        "orbit_uncertainty" : "0",
        "minimum_orbit_intersection" : ".00433054",
        "jupiter_tisserand_invariant" : "3.539",
        "epoch_osculation" : "2458000.5",
        "eccentricity" : ".5324847482604941",
        "semi_major_axis" : "2.10401812174821",
        "inclination" : "8.168524524209124",
        "ascending_node_longitude" : "299.0216815675574",
        "orbital_period" : "1114.737576501411",
        "perihelion_distance" : ".9836605618535967",
        "perihelion_argument" : "332.9520294576553",
        "aphelion_distance" : "3.224375681642823",
        "perihelion_time" : "2457678.053524113697",
        "mean_anomaly" : "104.1327876318541",
        "mean_motion" : ".322945962878416",
        "equinox" : "J2000"
      }
    }, {
      "links" : {
        "self" : "https://api.nasa.gov/neo/rest/v1/neo/3648769?api_key=t0TVs3DtDT2H8Oy2Zy8m2eVrNsAVKAexjcZXUckd"
      },
      "neo_reference_id" : "3648769",
      "name" : "(2013 TK4)",
      "nasa_jpl_url" : "http://ssd.jpl.nasa.gov/sbdb.cgi?sstr=3648769",
      "absolute_magnitude_h" : 24.0,
      "estimated_diameter" : {
        "kilometers" : {
          "estimated_diameter_min" : 0.0421264611,
          "estimated_diameter_max" : 0.0941976306
        },
        "meters" : {
          "estimated_diameter_min" : 42.1264610556,
          "estimated_diameter_max" : 94.1976305719
        },
        "miles" : {
          "estimated_diameter_min" : 0.0261761612,
          "estimated_diameter_max" : 0.0585316759
        },
        "feet" : {
          "estimated_diameter_min" : 138.2101784897,
          "estimated_diameter_max" : 309.0473542854
        }
      },
      "is_potentially_hazardous_asteroid" : false,
      "close_approach_data" : [ {
        "close_approach_date" : "1995-05-08",
        "epoch_date_close_approach" : 799916400000,
        "relative_velocity" : {
          "kilometers_per_second" : "10.8435350851",
          "kilometers_per_hour" : "39036.7263062466",
          "miles_per_hour" : "24255.9036317897"
        },
        "miss_distance" : {
          "astronomical" : "0.3079150576",
          "lunar" : "119.7789611816",
          "kilometers" : "46063436",
          "miles" : "28622494"
        },
        "orbiting_body" : "Earth"
      } ],
      "orbital_data" : {
        "orbit_id" : "12",
        "orbit_determination_date" : "2017-04-06 08:44:24",
        "orbit_uncertainty" : "3",
        "minimum_orbit_intersection" : ".0666464",
        "jupiter_tisserand_invariant" : "6.379",
        "epoch_osculation" : "2458000.5",
        "eccentricity" : ".2473747528584077",
        "semi_major_axis" : ".9352170073812008",
        "inclination" : "7.028450269921951",
        "ascending_node_longitude" : "204.1993482802674",
        "orbital_period" : "330.3444547300045",
        "perihelion_distance" : ".7038679313112967",
        "perihelion_argument" : "23.65247194162792",
        "aphelion_distance" : "1.166566083451105",
        "perihelion_time" : "2458103.637073675860",
        "mean_anomaly" : "247.60414775645",
        "mean_motion" : "1.089771584918032",
        "equinox" : "J2000"
      }
    }, {
      "links" : {
        "self" : "https://api.nasa.gov/neo/rest/v1/neo/3773650?api_key=t0TVs3DtDT2H8Oy2Zy8m2eVrNsAVKAexjcZXUckd"
      },
      "neo_reference_id" : "3773650",
      "name" : "(2017 FH128)",
      "nasa_jpl_url" : "http://ssd.jpl.nasa.gov/sbdb.cgi?sstr=3773650",
      "absolute_magnitude_h" : 21.494,
      "estimated_diameter" : {
        "kilometers" : {
          "estimated_diameter_min" : 0.1335841639,
          "estimated_diameter_max" : 0.2987032712
        },
        "meters" : {
          "estimated_diameter_min" : 133.5841639131,
          "estimated_diameter_max" : 298.7032712272
        },
        "miles" : {
          "estimated_diameter_min" : 0.0830053255,
          "estimated_diameter_max" : 0.1856055503
        },
        "feet" : {
          "estimated_diameter_min" : 438.2682683328,
          "estimated_diameter_max" : 979.9976403732
        }
      },
      "is_potentially_hazardous_asteroid" : false,
      "close_approach_data" : [ {
        "close_approach_date" : "1995-05-08",
        "epoch_date_close_approach" : 799916400000,
        "relative_velocity" : {
          "kilometers_per_second" : "15.6786970401",
          "kilometers_per_hour" : "56443.3093445288",
          "miles_per_hour" : "35071.6774091046"
        },
        "miss_distance" : {
          "astronomical" : "0.1947745932",
          "lunar" : "75.7673187256",
          "kilometers" : "29137866",
          "miles" : "18105430"
        },
        "orbiting_body" : "Earth"
      } ],
      "orbital_data" : {
        "orbit_id" : "9",
        "orbit_determination_date" : "2017-05-13 06:43:11",
        "orbit_uncertainty" : "5",
        "minimum_orbit_intersection" : ".0739088",
        "jupiter_tisserand_invariant" : "6.696",
        "epoch_osculation" : "2458000.5",
        "eccentricity" : ".3838850579102436",
        "semi_major_axis" : ".8740622180160318",
        "inclination" : "10.8683759590036",
        "ascending_node_longitude" : "100.3027572519904",
        "orbital_period" : "298.4777407624754",
        "perihelion_distance" : ".5385227928357914",
        "perihelion_argument" : "257.1689856660798",
        "aphelion_distance" : "1.209601643196272",
        "perihelion_time" : "2457968.782320913114",
        "mean_anomaly" : "38.2553300025332",
        "mean_motion" : "1.206120091502847",
        "equinox" : "J2000"
      }
    } ]
  }
}